{
  "type": "FeatureCollection",
  "features": [
    {
      "type": "Feature",
      "properties": {
        "norad_id": 33412,
        "name": "COSMO-SKYMED 3",
        "group": "resource",
        "lat": -9.932249050758005,
        "lon": -170.2104749191256,
        "alt_km": 564.1035036305702,
        "timestamp": "2025-12-04T03:47:54.210407+00:00",
        "meta_object_name": "COSMO-SKYMED 3",
        "meta_object_id": "2008-054A",
        "meta_epoch": "2025-12-03T13:29:01.959936",
        "meta_mean_motion": 15.05212926,
        "meta_eccentricity": 0.0015429,
        "meta_inclination": 97.8468,
        "meta_ra_of_asc_node": 187.7996,
        "meta_arg_of_pericenter": 204.5236,
        "meta_mean_anomaly": 155.5258,
        "meta_ephemeris_type": 0,
        "meta_classification_type": "U",
        "meta_norad_cat_id": 33412,
        "meta_element_set_no": 999,
        "meta_rev_at_epoch": 92749,
        "meta_bstar": 0.00045834,
        "meta_mean_motion_dot": 6.495e-05,
        "meta_mean_motion_ddot": 0,
        "tle_line1": "1 33412U 08054A   25337.56182824  .00006495  00000+0  45834-3 0  9996",
        "tle_line2": "2 33412  97.8468 187.7996 0015429 204.5236 155.5258 15.05212926927492"
      },
      "geometry": {
        "type": "Point",
        "coordinates": [
          -170.2104749191256,
          -9.932249050758005
        ]
      }
    },
    {
      "type": "Feature",
      "properties": {
        "norad_id": 33446,
        "name": "YAOGAN-4",
        "group": "resource",
        "lat": -50.189399038035354,
        "lon": -82.04662397890144,
        "alt_km": 620.5288786465735,
        "timestamp": "2025-12-04T03:47:54.210417+00:00",
        "meta_object_name": "YAOGAN-4",
        "meta_object_id": "2008-061A",
        "meta_epoch": "2025-12-03T08:35:24.296640",
        "meta_mean_motion": 14.8263402,
        "meta_eccentricity": 0.0014411,
        "meta_inclination": 97.917,
        "meta_ra_of_asc_node": 267.5501,
        "meta_arg_of_pericenter": 354.6933,
        "meta_mean_anomaly": 5.4125,
        "meta_ephemeris_type": 0,
        "meta_classification_type": "U",
        "meta_norad_cat_id": 33446,
        "meta_element_set_no": 999,
        "meta_rev_at_epoch": 91664,
        "meta_bstar": 0.00028686,
        "meta_mean_motion_dot": 2.261e-05,
        "meta_mean_motion_ddot": 0,
        "tle_line1": "1 33446U 08061A   25337.35792010  .00002261  00000+0  28686-3 0  9995",
        "tle_line2": "2 33446  97.9170 267.5501 0014411 354.6933   5.4125 14.82634020916648"
      },
      "geometry": {
        "type": "Point",
        "coordinates": [
          -82.04662397890144,
          -50.189399038035354
        ]
      }
    },
    {
      "type": "Feature",
      "properties": {
        "norad_id": 33492,
        "name": "GOSAT (IBUKI)",
        "group": "resource",
        "lat": 70.65914638282169,
        "lon": -69.25446766298352,
        "alt_km": 661.299844821483,
        "timestamp": "2025-12-04T03:47:54.210427+00:00",
        "meta_object_name": "GOSAT (IBUKI)",
        "meta_object_id": "2009-002A",
        "meta_epoch": "2025-12-03T07:40:24.938112",
        "meta_mean_motion": 14.67545901,
        "meta_eccentricity": 0.0001179,
        "meta_inclination": 98.0766,
        "meta_ra_of_asc_node": 86.0553,
        "meta_arg_of_pericenter": 87.7472,
        "meta_mean_anomaly": 272.3868,
        "meta_ephemeris_type": 0,
        "meta_classification_type": "U",
        "meta_norad_cat_id": 33492,
        "meta_element_set_no": 999,
        "meta_rev_at_epoch": 90273,
        "meta_bstar": 0.00025922,
        "meta_mean_motion_dot": 1.422e-05,
        "meta_mean_motion_ddot": 0,
        "tle_line1": "1 33492U 09002A   25337.31973308  .00001422  00000+0  25922-3 0  9997",
        "tle_line2": "2 33492  98.0766  86.0553 0001179  87.7472 272.3868 14.67545901902738"
      },
      "geometry": {
        "type": "Point",
        "coordinates": [
          -69.25446766298352,
          70.65914638282169
        ]
      }
    },
    {
      "type": "Feature",
      "properties": {
        "norad_id": 35681,
        "name": "DEIMOS-1",
        "group": "resource",
        "lat": -42.21132433712571,
        "lon": 146.22440080265918,
        "alt_km": 653.384820860656,
        "timestamp": "2025-12-04T03:47:54.210438+00:00",
        "meta_object_name": "DEIMOS-1",
        "meta_object_id": "2009-041A",
        "meta_epoch": "2025-12-03T11:42:35.088768",
        "meta_mean_motion": 14.74929428,
        "meta_eccentricity": 0.0002677,
        "meta_inclination": 97.7146,
        "meta_ra_of_asc_node": 138.5224,
        "meta_arg_of_pericenter": 96.748,
        "meta_mean_anomaly": 263.4034,
        "meta_ephemeris_type": 0,
        "meta_classification_type": "U",
        "meta_norad_cat_id": 35681,
        "meta_element_set_no": 999,
        "meta_rev_at_epoch": 87803,
        "meta_bstar": 0.0001719,
        "meta_mean_motion_dot": 1.107e-05,
        "meta_mean_motion_ddot": 0,
        "tle_line1": "1 35681U 09041A   25337.48790612  .00001107  00000+0  17190-3 0  9993",
        "tle_line2": "2 35681  97.7146 138.5224 0002677  96.7480 263.4034 14.74929428878038"
      },
      "geometry": {
        "type": "Point",
        "coordinates": [
          146.22440080265918,
          -42.21132433712571
        ]
      }
    },
    {
      "type": "Feature",
      "properties": {
        "norad_id": 35682,
        "name": "DUBAISAT-1",
        "group": "resource",
        "lat": -79.42028129620435,
        "lon": -119.70296955848343,
        "alt_km": 652.7471841755287,
        "timestamp": "2025-12-04T03:47:54.210465+00:00",
        "meta_object_name": "DUBAISAT-1",
        "meta_object_id": "2009-041B",
        "meta_epoch": "2025-12-03T08:41:38.285088",
        "meta_mean_motion": 14.74559668,
        "meta_eccentricity": 0.0010168,
        "meta_inclination": 97.9784,
        "meta_ra_of_asc_node": 108.1807,
        "meta_arg_of_pericenter": 346.4691,
        "meta_mean_anomaly": 13.6243,
        "meta_ephemeris_type": 0,
        "meta_classification_type": "U",
        "meta_norad_cat_id": 35682,
        "meta_element_set_no": 999,
        "meta_rev_at_epoch": 87623,
        "meta_bstar": 0.00028341,
        "meta_mean_motion_dot": 1.838e-05,
        "meta_mean_motion_ddot": 0,
        "tle_line1": "1 35682U 09041B   25337.36224867  .00001838  00000+0  28341-3 0  9996",
        "tle_line2": "2 35682  97.9784 108.1807 0010168 346.4691  13.6243 14.74559668876234"
      },
      "geometry": {
        "type": "Point",
        "coordinates": [
          -119.70296955848343,
          -79.42028129620435
        ]
      }
    },
    {
      "type": "Feature",
      "properties": {
        "norad_id": 35931,
        "name": "OCEANSAT-2",
        "group": "resource",
        "lat": -52.449492935139425,
        "lon": 148.78658758595395,
        "alt_km": 913.7347376434818,
        "timestamp": "2025-12-04T03:47:54.210478+00:00",
        "meta_object_name": "OCEANSAT-2",
        "meta_object_id": "2009-051A",
        "meta_epoch": "2025-12-03T12:57:47.480832",
        "meta_mean_motion": 13.99626605,
        "meta_eccentricity": 0.0016596,
        "meta_inclination": 98.2231,
        "meta_ra_of_asc_node": 339.0735,
        "meta_arg_of_pericenter": 68.9495,
        "meta_mean_anomaly": 291.3445,
        "meta_ephemeris_type": 0,
        "meta_classification_type": "U",
        "meta_norad_cat_id": 35931,
        "meta_element_set_no": 999,
        "meta_rev_at_epoch": 85196,
        "meta_bstar": -8.0477e-05,
        "meta_mean_motion_dot": -1.55e-06,
        "meta_mean_motion_ddot": 0,
        "tle_line1": "1 35931U 09051A   25337.54013288 -.00000155  00000+0 -80477-4 0  9999",
        "tle_line2": "2 35931  98.2231 339.0735 0016596  68.9495 291.3445 13.99626605851960"
      },
      "geometry": {
        "type": "Point",
        "coordinates": [
          148.78658758595395,
          -52.449492935139425
        ]
      }
    },
    {
      "type": "Feature",
      "properties": {
        "norad_id": 35946,
        "name": "WORLDVIEW-2 (WV-2)",
        "group": "resource",
        "lat": -77.56205947030226,
        "lon": -173.18398440378252,
        "alt_km": 777.4740047960895,
        "timestamp": "2025-12-04T03:47:54.210489+00:00",
        "meta_object_name": "WORLDVIEW-2 (WV-2)",
        "meta_object_id": "2009-055A",
        "meta_epoch": "2025-12-03T11:33:20.600352",
        "meta_mean_motion": 14.3764571,
        "meta_eccentricity": 0.0005444,
        "meta_inclination": 98.4771,
        "meta_ra_of_asc_node": 48.6952,
        "meta_arg_of_pericenter": 89.0722,
        "meta_mean_anomaly": 271.1089,
        "meta_ephemeris_type": 0,
        "meta_classification_type": "U",
        "meta_norad_cat_id": 35946,
        "meta_element_set_no": 999,
        "meta_rev_at_epoch": 84752,
        "meta_bstar": 0.00011487,
        "meta_mean_motion_dot": 3.01e-06,
        "meta_mean_motion_ddot": 0,
        "tle_line1": "1 35946U 09055A   25337.48148843  .00000301  00000+0  11487-3 0  9993",
        "tle_line2": "2 35946  98.4771  48.6952 0005444  89.0722 271.1089 14.37645710847526"
      },
      "geometry": {
        "type": "Point",
        "coordinates": [
          -173.18398440378252,
          -77.56205947030226
        ]
      }
    }
  ]
}